0 TITAN 3C TRANSTAGE DEB
1 28805U 65108BX  13280.13642703 -.00000004  00000-0  65946-3 0  6101
2 28805 026.2446 155.8436 6773579 020.1447 033.2392 02.74601053 94499
0 TITAN 3C TRANSTAGE DEB
1 28805U 65108BX  13289.91202419  .00000045  00000-0  11683-2 0  6115
2 28805 026.2399 151.5753 6773963 027.3269 337.0255 02.74604909 94754
